start=new Date('2023-03-16T00:00:00.000Z').valueOf();
sats=[{"RA_OF_ASC_NODE":"343.7631","PERIOD":"95.594","DECAY_DATE":null,"GP_ID":"228205818","FILE":"3861599","NORAD_CAT_ID":"48559","INCLINATION":"53.0535","SEMIMAJOR_AXIS":"6925.421","ARG_OF_PERICENTER":"75.7528","ELEMENT_SET_NO":"999","MEAN_MOTION_DOT":"0.00034783","REV_AT_EPOCH":"10094","CLASSIFICATION_TYPE":"U","ECCENTRICITY":"0.00008700","TIME_SYSTEM":"UTC","RCS_SIZE":"LARGE","CENTER_NAME":"EARTH","OBJECT_TYPE":"PAYLOAD","MEAN_ELEMENT_THEORY":"SGP4","PERIAPSIS":"546.684","SITE":"AFETR","EPHEMERIS_TYPE":"0","TLE_LINE1":"1 48559U 21041G   23074.92613468  .00034783  00000-0  23440-2 0  9994","EPOCH":"2023-03-15T22:13:38.036352","REF_FRAME":"TEME","COUNTRY_CODE":"US","MEAN_MOTION":"15.06376251","OBJECT_ID":"2021-041G","MEAN_ANOMALY":"284.3558","BSTAR":"0.00234400000000","MEAN_MOTION_DDOT":"0.0000000000000","APOAPSIS":"547.889","OBJECT_NAME":"STARLINK-2167","LAUNCH_DATE":"2021-05-15","TLE_LINE2":"2 48559  53.0535 343.7631 0000870  75.7528 284.3558 15.06376251100945"},{"DECAY_DATE":null,"PERIOD":"95.595","RA_OF_ASC_NODE":"313.9703","INCLINATION":"53.0548","NORAD_CAT_ID":"48561","FILE":"3861599","GP_ID":"228207069","MEAN_MOTION_DOT":"0.00004790","ELEMENT_SET_NO":"999","SEMIMAJOR_AXIS":"6925.506","ARG_OF_PERICENTER":"103.0036","TIME_SYSTEM":"UTC","ECCENTRICITY":"0.00004180","CLASSIFICATION_TYPE":"U","REV_AT_EPOCH":"10137","EPHEMERIS_TYPE":"0","SITE":"AFETR","PERIAPSIS":"547.082","OBJECT_TYPE":"PAYLOAD","MEAN_ELEMENT_THEORY":"SGP4","CENTER_NAME":"EARTH","RCS_SIZE":"LARGE","TLE_LINE1":"1 48561U 21041J   23074.94090174  .00004790  00000-0  34069-3 0  9997","OBJECT_ID":"2021-041J","MEAN_MOTION":"15.06348543","COUNTRY_CODE":"US","REF_FRAME":"TEME","EPOCH":"2023-03-15T22:34:53.910336","TLE_LINE2":"2 48561  53.0548 313.9703 0000418 103.0036 257.1000 15.06348543101379","OBJECT_NAME":"STARLINK-2186","LAUNCH_DATE":"2021-05-15","APOAPSIS":"547.661","MEAN_MOTION_DDOT":"0.0000000000000","BSTAR":"0.00034069000000","MEAN_ANOMALY":"257.1000"},{"BSTAR":"-0.00009597400000","MEAN_ANOMALY":"240.1189","MEAN_MOTION_DDOT":"0.0000000000000","OBJECT_NAME":"STARLINK-2187","LAUNCH_DATE":"2021-05-15","APOAPSIS":"548.281","TLE_LINE2":"2 48562  53.0558 343.7207 0001455 119.9945 240.1189 15.06380581100959","EPOCH":"2023-03-15T22:25:37.490880","COUNTRY_CODE":"US","REF_FRAME":"TEME","MEAN_MOTION":"15.06380581","OBJECT_ID":"2021-041K","TLE_LINE1":"1 48562U 21041K   23074.93446170 -.00001710  00000-0 -95974-4 0  9992","CENTER_NAME":"EARTH","RCS_SIZE":"LARGE","MEAN_ELEMENT_THEORY":"SGP4","OBJECT_TYPE":"PAYLOAD","EPHEMERIS_TYPE":"0","PERIAPSIS":"546.265","SITE":"AFETR","REV_AT_EPOCH":"10095","CLASSIFICATION_TYPE":"U","TIME_SYSTEM":"UTC","ECCENTRICITY":"0.00014550","SEMIMAJOR_AXIS":"6925.408","ARG_OF_PERICENTER":"119.9945","ELEMENT_SET_NO":"999","MEAN_MOTION_DOT":"-0.00001710","GP_ID":"228206820","INCLINATION":"53.0558","NORAD_CAT_ID":"48562","FILE":"3861599","RA_OF_ASC_NODE":"343.7207","PERIOD":"95.593","DECAY_DATE":null},{"TLE_LINE1":"1 48563U 21041L   23074.88651758  .00041891  00000-0  28130-2 0  9997","EPHEMERIS_TYPE":"0","SITE":"AFETR","PERIAPSIS":"546.486","RCS_SIZE":"LARGE","CENTER_NAME":"EARTH","MEAN_ELEMENT_THEORY":"SGP4","OBJECT_TYPE":"PAYLOAD","OBJECT_NAME":"STARLINK-2188","LAUNCH_DATE":"2021-05-15","APOAPSIS":"547.815","TLE_LINE2":"2 48563  53.0552 343.9370 0000960 108.9733 251.1360 15.06420572100947","BSTAR":"0.00281300000000","MEAN_ANOMALY":"251.1360","MEAN_MOTION_DDOT":"0.0000000000000","REF_FRAME":"TEME","COUNTRY_CODE":"US","OBJECT_ID":"2021-041L","MEAN_MOTION":"15.06420572","EPOCH":"2023-03-15T21:16:35.118912","INCLINATION":"53.0552","FILE":"3861599","NORAD_CAT_ID":"48563","GP_ID":"228205568","DECAY_DATE":null,"RA_OF_ASC_NODE":"343.9370","PERIOD":"95.591","TIME_SYSTEM":"UTC","ECCENTRICITY":"0.00009600","REV_AT_EPOCH":"10094","CLASSIFICATION_TYPE":"U","ELEMENT_SET_NO":"999","MEAN_MOTION_DOT":"0.00041891","ARG_OF_PERICENTER":"108.9733","SEMIMAJOR_AXIS":"6925.286"},{"COUNTRY_CODE":"US","REF_FRAME":"TEME","OBJECT_ID":"2021-041M","MEAN_MOTION":"15.06406535","EPOCH":"2023-03-15T22:41:29.926464","LAUNCH_DATE":"2021-05-15","OBJECT_NAME":"STARLINK-2190","APOAPSIS":"547.813","TLE_LINE2":"2 48564  53.0540 343.6741 0000894  83.8221 276.2869 15.06406535100959","BSTAR":"0.00127600000000","MEAN_ANOMALY":"276.2869","MEAN_MOTION_DDOT":"0.0000000000000","EPHEMERIS_TYPE":"0","SITE":"AFETR","PERIAPSIS":"546.574","RCS_SIZE":"LARGE","CENTER_NAME":"EARTH","OBJECT_TYPE":"PAYLOAD","MEAN_ELEMENT_THEORY":"SGP4","TLE_LINE1":"1 48564U 21041M   23074.94548526  .00018779  00000-0  12760-2 0  9994","ELEMENT_SET_NO":"999","MEAN_MOTION_DOT":"0.00018779","ARG_OF_PERICENTER":"83.8221","SEMIMAJOR_AXIS":"6925.329","TIME_SYSTEM":"UTC","ECCENTRICITY":"0.00008940","REV_AT_EPOCH":"10095","CLASSIFICATION_TYPE":"U","DECAY_DATE":null,"RA_OF_ASC_NODE":"343.6741","PERIOD":"95.592","INCLINATION":"53.0540","NORAD_CAT_ID":"48564","FILE":"3861599","GP_ID":"228206318"},{"PERIAPSIS":"546.227","SITE":"AFETR","EPHEMERIS_TYPE":"0","MEAN_ELEMENT_THEORY":"SGP4","OBJECT_TYPE":"PAYLOAD","RCS_SIZE":"LARGE","CENTER_NAME":"EARTH","TLE_LINE1":"1 48565U 21041N   23074.14466974  .00048254  00000-0  32283-2 0  9996","OBJECT_ID":"2021-041N","MEAN_MOTION":"15.06491438","COUNTRY_CODE":"US","REF_FRAME":"TEME","EPOCH":"2023-03-15T03:28:19.465536","TLE_LINE2":"2 48565  53.0537 347.2521 0001020 123.1233 236.9854 15.06491438100835","APOAPSIS":"547.640","LAUNCH_DATE":"2021-05-15","OBJECT_NAME":"STARLINK-2191","MEAN_MOTION_DDOT":"0.0000000000000","MEAN_ANOMALY":"236.9854","BSTAR":"0.00322830000000","DECAY_DATE":null,"PERIOD":"95.586","RA_OF_ASC_NODE":"347.2521","NORAD_CAT_ID":"48565","FILE":"3861350","INCLINATION":"53.0537","GP_ID":"228147672","MEAN_MOTION_DOT":"0.00048254","ELEMENT_SET_NO":"999","SEMIMAJOR_AXIS":"6925.068","ARG_OF_PERICENTER":"123.1233","ECCENTRICITY":"0.00010200","TIME_SYSTEM":"UTC","CLASSIFICATION_TYPE":"U","REV_AT_EPOCH":"10083"},{"PERIAPSIS":"545.879","SITE":"AFETR","EPHEMERIS_TYPE":"0","RCS_SIZE":"LARGE","CENTER_NAME":"EARTH","OBJECT_TYPE":"PAYLOAD","MEAN_ELEMENT_THEORY":"SGP4","TLE_LINE1":"1 48566U 21041P   23074.16684553  .00035676  00000-0  23986-2 0  9998","REF_FRAME":"TEME","COUNTRY_CODE":"US","MEAN_MOTION":"15.06450443","OBJECT_ID":"2021-041P","EPOCH":"2023-03-15T04:00:15.453792","APOAPSIS":"548.239","LAUNCH_DATE":"2021-05-15","OBJECT_NAME":"STARLINK-2214","TLE_LINE2":"2 48566  53.0551 357.1349 0001704 122.3784 237.7370 15.06450443100698","MEAN_ANOMALY":"237.7370","BSTAR":"0.00239860000000","MEAN_MOTION_DDOT":"0.0000000000000","DECAY_DATE":null,"RA_OF_ASC_NODE":"357.1349","PERIOD":"95.589","NORAD_CAT_ID":"48566","FILE":"3861350","INCLINATION":"53.0551","GP_ID":"228148923","ELEMENT_SET_NO":"999","MEAN_MOTION_DOT":"0.00035676","ARG_OF_PERICENTER":"122.3784","SEMIMAJOR_AXIS":"6925.194","ECCENTRICITY":"0.00017040","TIME_SYSTEM":"UTC","REV_AT_EPOCH":"10069","CLASSIFICATION_TYPE":"U"},{"ARG_OF_PERICENTER":"96.8176","SEMIMAJOR_AXIS":"6925.323","MEAN_MOTION_DOT":"0.00032107","ELEMENT_SET_NO":"999","CLASSIFICATION_TYPE":"U","REV_AT_EPOCH":"10080","ECCENTRICITY":"0.00011210","TIME_SYSTEM":"UTC","PERIOD":"95.592","RA_OF_ASC_NODE":"353.8212","DECAY_DATE":null,"GP_ID":"228206068","NORAD_CAT_ID":"48567","FILE":"3861599","INCLINATION":"53.0541","EPOCH":"2023-03-15T21:52:27.124320","MEAN_MOTION":"15.06408265","OBJECT_ID":"2021-041Q","REF_FRAME":"TEME","COUNTRY_CODE":"US","MEAN_MOTION_DDOT":"0.0000000000000","MEAN_ANOMALY":"263.2940","BSTAR":"0.00216410000000","TLE_LINE2":"2 48567  53.0541 353.8212 0001121  96.8176 263.2940 15.06408265100808","APOAPSIS":"547.965","LAUNCH_DATE":"2021-05-15","OBJECT_NAME":"STARLINK-2215","MEAN_ELEMENT_THEORY":"SGP4","OBJECT_TYPE":"PAYLOAD","CENTER_NAME":"EARTH","RCS_SIZE":"LARGE","PERIAPSIS":"546.412","SITE":"AFETR","EPHEMERIS_TYPE":"0","TLE_LINE1":"1 48567U 21041Q   23074.91142505  .00032107  00000-0  21641-2 0  9990"},{"EPOCH":"2023-03-15T22:09:41.633856","COUNTRY_CODE":"US","REF_FRAME":"TEME","MEAN_MOTION":"15.06381632","OBJECT_ID":"2021-041R","MEAN_ANOMALY":"242.1266","BSTAR":"0.00193360000000","MEAN_MOTION_DDOT":"0.0000000000000","APOAPSIS":"548.311","LAUNCH_DATE":"2021-05-15","OBJECT_NAME":"STARLINK-2217","TLE_LINE2":"2 48568  53.0537 343.7756 0001504 117.9875 242.1266 15.06381632100941","CENTER_NAME":"EARTH","RCS_SIZE":"LARGE","OBJECT_TYPE":"PAYLOAD","MEAN_ELEMENT_THEORY":"SGP4","PERIAPSIS":"546.228","SITE":"AFETR","EPHEMERIS_TYPE":"0","TLE_LINE1":"1 48568U 21041R   23074.92339854  .00028623  00000-0  19336-2 0  9993","ARG_OF_PERICENTER":"117.9875","SEMIMAJOR_AXIS":"6925.405","ELEMENT_SET_NO":"999","MEAN_MOTION_DOT":"0.00028623","REV_AT_EPOCH":"10094","CLASSIFICATION_TYPE":"U","ECCENTRICITY":"0.00015040","TIME_SYSTEM":"UTC","RA_OF_ASC_NODE":"343.7756","PERIOD":"95.593","DECAY_DATE":null,"GP_ID":"228205819","NORAD_CAT_ID":"48568","FILE":"3861599","INCLINATION":"53.0537"},{"BSTAR":"0.00189080000000","MEAN_ANOMALY":"263.2809","MEAN_MOTION_DDOT":"0.0000000000000","OBJECT_NAME":"STARLINK-2219","LAUNCH_DATE":"2021-05-15","APOAPSIS":"548.044","TLE_LINE2":"2 48569  53.0546 343.9519 0001376  96.8336 263.2809 15.06439910100945","EPOCH":"2023-03-15T21:11:17.774304","COUNTRY_CODE":"US","REF_FRAME":"TEME","MEAN_MOTION":"15.06439910","OBJECT_ID":"2021-041S","TLE_LINE1":"1 48569U 21041S   23074.88284461  .00028025  00000-0  18908-2 0  9992","CENTER_NAME":"EARTH","RCS_SIZE":"LARGE","MEAN_ELEMENT_THEORY":"SGP4","OBJECT_TYPE":"PAYLOAD","EPHEMERIS_TYPE":"0","SITE":"AFETR","PERIAPSIS":"546.138","REV_AT_EPOCH":"10094","CLASSIFICATION_TYPE":"U","TIME_SYSTEM":"UTC","ECCENTRICITY":"0.00013760","ARG_OF_PERICENTER":"96.8336","SEMIMAJOR_AXIS":"6925.226","ELEMENT_SET_NO":"999","MEAN_MOTION_DOT":"0.00028025","GP_ID":"228207070","INCLINATION":"53.0546","FILE":"3861599","NORAD_CAT_ID":"48569","RA_OF_ASC_NODE":"343.9519","PERIOD":"95.590","DECAY_DATE":null}];
